{"type": "FeatureCollection", "features": [ {"type": "Feature", "properties": {"norad_id": 42969, "name": "SENTINEL-5P", "group": "resource", "lat": 80.35324938760532, "lon": -141.40397339528417, "alt_km": 818.8629078288322, "timestamp": "2025-12-11T08:58:26.771761+00:00", "meta": {"OBJECT_NAME": "SENTINEL-5P", "OBJECT_ID": "2017-064A", "EPOCH": "2025-12-10T13:57:44.045856", "MEAN_MOTION": 14.1951665, "ECCENTRICITY": 9.63e-05, "INCLINATION": 98.7782, "RA_OF_ASC_NODE": 283.1851, "ARG_OF_PERICENTER": 87.8705, "MEAN_ANOMALY": 272.2581, "EPHEMERIS_TYPE": 0, "CLASSIFICATION_TYPE": "U", "NORAD_CAT_ID": 42969, "ELEMENT_SET_NO": 999, "REV_AT_EPOCH": 42280, "BSTAR": 0.00010287, "MEAN_MOTION_DOT": 1.73e-06, "MEAN_MOTION_DDOT": 0}, "tle": {"line1": "1 42969U 17064A   25344.58175979  .00000173  00000+0  10287-3 0  9998", "line2": "2 42969  98.7782 283.1851 0000963  87.8705 272.2581 14.19516650422805"}}, "geometry": {"type": "Point", "coordinates": [-141.40397339528417, 80.35324938760532]}}, {"type": "Feature", "properties": {"norad_id": 42987, "name": "SKYSAT-C11", "group": "resource", "lat": -67.02637656941982, "lon": 140.72044529776582, "alt_km": 432.41714861328364, "timestamp": "2025-12-11T08:58:26.771771+00:00", "meta": {"OBJECT_NAME": "SKYSAT-C11", "OBJECT_ID": "2017-068A", "EPOCH": "2025-12-11T04:36:44.283744", "MEAN_MOTION": 15.4734116, "ECCENTRICITY": 9.85e-05, "INCLINATION": 97.4141, "RA_OF_ASC_NODE": 122.6453, "ARG_OF_PERICENTER": 104.9334, "MEAN_ANOMALY": 255.2025, "EPHEMERIS_TYPE": 0, "CLASSIFICATION_TYPE": "U", "NORAD_CAT_ID": 42987, "ELEMENT_SET_NO": 999, "REV_AT_EPOCH": 45407, "BSTAR": 0.00062559, "MEAN_MOTION_DOT": 0.00031949, "MEAN_MOTION_DDOT": 0}, "tle": {"line1": "1 42987U 17068A   25345.19217921  .00031949  00000+0  62559-3 0  9998", "line2": "2 42987  97.4141 122.6453 0000985 104.9334 255.2025 15.47341160454070"}}, "geometry": {"type": "Point", "coordinates": [140.72044529776582, -67.02637656941982]}}, {"type": "Feature", "properties": {"norad_id": 42988, "name": "SKYSAT-C10", "group": "resource", "lat": 82.24259108033523, "lon": 43.00086277513976, "alt_km": 458.89998393511996, "timestamp": "2025-12-11T08:58:26.771782+00:00", "meta": {"OBJECT_NAME": "SKYSAT-C10", "OBJECT_ID": "2017-068B", "EPOCH": "2025-12-11T03:53:23.546112", "MEAN_MOTION": 15.32006211, "ECCENTRICITY": 0.0005345, "INCLINATION": 97.4257, "RA_OF_ASC_NODE": 116.0086, "ARG_OF_PERICENTER": 108.1889, "MEAN_ANOMALY": 251.9935, "EPHEMERIS_TYPE": 0, "CLASSIFICATION_TYPE": "U", "NORAD_CAT_ID": 42988, "ELEMENT_SET_NO": 999, "REV_AT_EPOCH": 45355, "BSTAR": 0.00052568, "MEAN_MOTION_DOT": 0.00016189, "MEAN_MOTION_DDOT": 0}, "tle": {"line1": "1 42988U 17068B   25345.16207808  .00016189  00000+0  52568-3 0  9997", "line2": "2 42988  97.4257 116.0086 0005345 108.1889 251.9935 15.32006211453558"}}, "geometry": {"type": "Point", "coordinates": [43.00086277513976, 82.24259108033523]}}, {"type": "Feature", "properties": {"norad_id": 42989, "name": "SKYSAT-C9", "group": "resource", "lat": -80.61869681753298, "lon": 167.67942145691498, "alt_km": 472.61366825138794, "timestamp": "2025-12-11T08:58:26.771792+00:00", "meta": {"OBJECT_NAME": "SKYSAT-C9", "OBJECT_ID": "2017-068C", "EPOCH": "2025-12-10T19:16:09.008256", "MEAN_MOTION": 15.35967716, "ECCENTRICITY": 0.0010648, "INCLINATION": 97.4187, "RA_OF_ASC_NODE": 115.0414, "ARG_OF_PERICENTER": 93.9134, "MEAN_ANOMALY": 266.3328, "EPHEMERIS_TYPE": 0, "CLASSIFICATION_TYPE": "U", "NORAD_CAT_ID": 42989, "ELEMENT_SET_NO": 999, "REV_AT_EPOCH": 45378, "BSTAR": 0.00053472, "MEAN_MOTION_DOT": 0.00018699, "MEAN_MOTION_DDOT": 0}, "tle": {"line1": "1 42989U 17068C   25344.80288204  .00018699  00000+0  53472-3 0  9990", "line2": "2 42989  97.4187 115.0414 0010648  93.9134 266.3328 15.35967716453781"}}, "geometry": {"type": "Point", "coordinates": [167.67942145691498, -80.61869681753298]}}, {"type": "Feature", "properties": {"norad_id": 42990, "name": "SKYSAT-C8", "group": "resource", "lat": -79.05757958605092, "lon": -107.07184495811589, "alt_km": 474.7103677320347, "timestamp": "2025-12-11T08:58:26.771803+00:00", "meta": {"OBJECT_NAME": "SKYSAT-C8", "OBJECT_ID": "2017-068D", "EPOCH": "2025-12-10T19:18:03.305088", "MEAN_MOTION": 15.32847399, "ECCENTRICITY": 0.0001709, "INCLINATION": 97.4281, "RA_OF_ASC_NODE": 114.7963, "ARG_OF_PERICENTER": 358.0878, "MEAN_ANOMALY": 2.0357, "EPHEMERIS_TYPE": 0, "CLASSIFICATION_TYPE": "U", "NORAD_CAT_ID": 42990, "ELEMENT_SET_NO": 999, "REV_AT_EPOCH": 45341, "BSTAR": 0.00049354, "MEAN_MOTION_DOT": 0.00015593, "MEAN_MOTION_DDOT": 0}, "tle": {"line1": "1 42990U 17068D   25344.80420492  .00015593  00000+0  49354-3 0  9993", "line2": "2 42990  97.4281 114.7963 0001709 358.0878   2.0357 15.32847399453419"}}, "geometry": {"type": "Point", "coordinates": [-107.07184495811589, -79.05757958605092]}}, {"type": "Feature", "properties": {"norad_id": 42991, "name": "SKYSAT-C7", "group": "resource", "lat": 58.756535929934465, "lon": -51.16978302672868, "alt_km": 460.6890293562092, "timestamp": "2025-12-11T08:58:26.771813+00:00", "meta": {"OBJECT_NAME": "SKYSAT-C7", "OBJECT_ID": "2017-068E", "EPOCH": "2025-12-11T02:10:55.125984", "MEAN_MOTION": 15.32265917, "ECCENTRICITY": 0.000772, "INCLINATION": 97.4286, "RA_OF_ASC_NODE": 116.1264, "ARG_OF_PERICENTER": 62.0604, "MEAN_ANOMALY": 298.1418, "EPHEMERIS_TYPE": 0, "CLASSIFICATION_TYPE": "U", "NORAD_CAT_ID": 42991, "ELEMENT_SET_NO": 999, "REV_AT_EPOCH": 45352, "BSTAR": 0.00052822, "MEAN_MOTION_DOT": 0.00016409, "MEAN_MOTION_DDOT": 0}, "tle": {"line1": "1 42991U 17068E   25345.09091581  .00016409  00000+0  52822-3 0  9990", "line2": "2 42991  97.4286 116.1264 0007720  62.0604 298.1418 15.32265917453521"}}, "geometry": {"type": "Point", "coordinates": [-51.16978302672868, 58.756535929934465]}}, {"type": "Feature", "properties": {"norad_id": 42992, "name": "SKYSAT-C6", "group": "resource", "lat": -60.54401521909428, "lon": -76.51412286457366, "alt_km": 481.9548234722588, "timestamp": "2025-12-11T08:58:26.771824+00:00", "meta": {"OBJECT_NAME": "SKYSAT-C6", "OBJECT_ID": "2017-068F", "EPOCH": "2025-12-10T19:22:41.837088", "MEAN_MOTION": 15.3142184, "ECCENTRICITY": 0.00052036, "INCLINATION": 97.432, "RA_OF_ASC_NODE": 116.2821, "ARG_OF_PERICENTER": 87.635, "MEAN_ANOMALY": 272.5487, "EPHEMERIS_TYPE": 0, "CLASSIFICATION_TYPE": "U", "NORAD_CAT_ID": 42992, "ELEMENT_SET_NO": 999, "REV_AT_EPOCH": 45346, "BSTAR": 0.00052032995, "MEAN_MOTION_DOT": 0.00015733, "MEAN_MOTION_DDOT": 0}, "tle": {"line1": "1 42992U 17068F   25344.80742867  .00015733  00000+0  52033-3 0  9992", "line2": "2 42992  97.4320 116.2821 0005203  87.6350 272.5487 15.31421840453469"}}, "geometry": {"type": "Point", "coordinates": [-76.51412286457366, -60.54401521909428]}}, {"type": "Feature", "properties": {"norad_id": 43111, "name": "CARTOSAT-2F", "group": "resource", "lat": 47.04369315946447, "lon": 34.97424351900037, "alt_km": 504.093126251958, "timestamp": "2025-12-11T08:58:26.771834+00:00", "meta": {"OBJECT_NAME": "CARTOSAT-2F", "OBJECT_ID": "2018-004A", "EPOCH": "2025-12-11T04:01:23.601792", "MEAN_MOTION": 15.19251105, "ECCENTRICITY": 8.86e-05, "INCLINATION": 97.4316, "RA_OF_ASC_NODE": 42.8301, "ARG_OF_PERICENTER": 147.7114, "MEAN_ANOMALY": 212.4175, "EPHEMERIS_TYPE": 0, "CLASSIFICATION_TYPE": "U", "NORAD_CAT_ID": 43111, "ELEMENT_SET_NO": 999, "REV_AT_EPOCH": 43878, "BSTAR": 0.00045299, "MEAN_MOTION_DOT": 9.485e-05, "MEAN_MOTION_DDOT": 0}, "tle": {"line1": "1 43111U 18004A   25345.16763428  .00009485  00000+0  45299-3 0  9996", "line2": "2 43111  97.4316  42.8301 0000886 147.7114 212.4175 15.19251105438789"}}, "geometry": {"type": "Point", "coordinates": [34.97424351900037, 47.04369315946447]}}, {"type": "Feature", "properties": {"norad_id": 43259, "name": "GAOFEN-1 02", "group": "resource", "lat": 23.897441606870593, "lon": 39.553487158002646, "alt_km": 640.9974933922149, "timestamp": "2025-12-11T08:58:26.771844+00:00", "meta": {"OBJECT_NAME": "GAOFEN-1 02", "OBJECT_ID": "2018-031A", "EPOCH": "2025-12-11T03:59:08.118816", "MEAN_MOTION": 14.7647355, "ECCENTRICITY": 0.0001535, "INCLINATION": 98.0804, "RA_OF_ASC_NODE": 42.9546, "ARG_OF_PERICENTER": 216.7673, "MEAN_ANOMALY": 143.3431, "EPHEMERIS_TYPE": 0, "CLASSIFICATION_TYPE": "U", "NORAD_CAT_ID": 43259, "ELEMENT_SET_NO": 999, "REV_AT_EPOCH": 41495, "BSTAR": 0.00015538, "MEAN_MOTION_DOT": 1.03e-05, "MEAN_MOTION_DDOT": 0}, "tle": {"line1": "1 43259U 18031A   25345.16606619  .00001030  00000+0  15538-3 0  9998", "line2": "2 43259  98.0804  42.9546 0001535 216.7673 143.3431 14.76473550414954"}}, "geometry": {"type": "Point", "coordinates": [39.553487158002646, 23.897441606870593]}}, {"type": "Feature", "properties": {"norad_id": 43260, "name": "GAOFEN-1 03", "group": "resource", "lat": 39.9528546431438, "lon": -130.12559315607194, "alt_km": 638.9699814464793, "timestamp": "2025-12-11T08:58:26.771855+00:00", "meta": {"OBJECT_NAME": "GAOFEN-1 03", "OBJECT_ID": "2018-031B", "EPOCH": "2025-12-11T05:05:28.995360", "MEAN_MOTION": 14.76431473, "ECCENTRICITY": 0.0002085, "INCLINATION": 98.0801, "RA_OF_ASC_NODE": 42.8779, "ARG_OF_PERICENTER": 329.1905, "MEAN_ANOMALY": 30.9182, "EPHEMERIS_TYPE": 0, "CLASSIFICATION_TYPE": "U", "NORAD_CAT_ID": 43260, "ELEMENT_SET_NO": 999, "REV_AT_EPOCH": 41495, "BSTAR": 0.00021074, "MEAN_MOTION_DOT": 1.414e-05, "MEAN_MOTION_DDOT": 0}, "tle": {"line1": "1 43260U 18031B   25345.21214115  .00001414  00000+0  21074-3 0  9990", "line2": "2 43260  98.0801  42.8779 0002085 329.1905  30.9182 14.76431473414950"}}, "geometry": {"type": "Point", "coordinates": [-130.12559315607194, 39.9528546431438]}}]}